[Satellite]
VERSION=1.1
NAME=TDRS 5
NICKNAME=TDRS 5
TLE1=1 21639U 91054B   15054.80286073  .00000070  00000-0  00000+0 0  9995
TLE2=2 21639  13.6134  30.7921 0018961 326.1801 277.7031  1.00268671 86292
